OBJECT_NAME,OBJECT_ID,EPOCH,MEAN_MOTION,ECCENTRICITY,INCLINATION,RA_OF_ASC_NODE,ARG_OF_PERICENTER,MEAN_ANOMALY,EPHEMERIS_TYPE,CLASSIFICATION_TYPE,NORAD_CAT_ID,ELEMENT_SET_NO,REV_AT_EPOCH,BSTAR,MEAN_MOTION_DOT,MEAN_MOTION_DDOT
CUBEBUG-2 (LO-74),2013-066AA,2026-07-16T06:24:13.455360,14.93971016,.00555899,97.8916,146.3746,291.7136,67.8171,0,U,39440,999,68133,.18967558E-3,.2019E-4,0
FUNCUBE-1 (AO-73),2013-066AE,2026-07-15T21:20:20.419872,15.09822727,.00379895,97.8290,168.9436,105.4335,255.1095,0,U,39444,999,68399,.22786592E-3,.3677E-4,0
UWE-3,2013-066AG,2026-07-15T19:42:56.271168,14.97201399,.00475492,97.8715,153.0945,222.4036,137.3508,0,U,39446,999,68186,.1702564E-3,.1951E-4,0
UNISAT-6,2014-033C,2026-07-15T23:24:42.967584,14.88368249,.00441214,97.7909,349.1880,335.1542,24.7549,0,U,40012,999,65044,.12207531E-3,.1093E-4,0
DUCHIFAT-1,2014-033M,2026-07-16T03:00:49.893408,15.71200075,.00027704,98.0416,260.5020,239.6355,120.4633,0,U,40021,999,66028,.68520431E-3,.87055E-3,0
QB50P1,2014-033R,2026-07-16T06:38:04.695936,15.18674869,.00104096,98.0963,210.4713,121.5140,238.7110,0,U,40025,999,65744,.19368784E-3,.3942E-4,0
LILACSAT-2,2015-049K,2026-07-16T06:53:56.956128,15.52383088,.00084602,97.4621,235.2490,138.2528,221.9372,0,U,40908,999,60026,.17131791E-3,.10362E-3,0
FOX-1A (AO-85),2015-058D,2026-07-16T04:38:35.457216,14.91091433,.01324348,64.7725,188.8311,45.4251,315.7579,0,U,40967,999,11789,.14890017E-3,.1568E-4,0
CAS-2T & KS-1Q,2016-066G,2026-07-16T04:33:34.557984,14.44771379,.03421967,98.3813,272.5943,41.7454,320.9311,0,U,41847,999,50898,.76374831E-4,.484E-5,0
RADFXSAT (FOX-1B),2017-073E,2026-07-16T04:15:09.573696,15.13069051,.0148309,97.4663,63.8014,228.0538,130.7976,0,U,43017,999,46977,.18904696E-3,.4307E-4,0
DIWATA-2B,2018-084H,2026-07-16T05:52:08.541120,15.00565233,.00127747,98.1210,34.7252,81.1103,279.1566,0,U,43678,999,42057,.83460393E-4,.989E-5,0
ES'HAIL 2,2018-090A,2026-07-16T06:36:02.566944,1.00271498,.00022446,0.0165,53.3784,105.6197,259.8961,0,U,43700,999,2796,0,.133E-5,0
FOX-1CLIFF (AO-95),2018-099N,2026-07-16T02:34:24.544128,15.27285234,.00073232,97.4366,257.2560,235.9460,124.1084,0,U,43770,999,41763,.24333245E-3,.6434E-4,0
ITASAT,2018-099AE,2026-07-16T03:12:48.947040,15.19388606,.00109223,97.4011,248.0717,246.7548,113.2537,0,U,43786,999,41730,.15784253E-3,.3276E-4,0
JY1SAT (JO-97),2018-099AX,2026-07-16T02:55:00.105600,15.34537200,.00070524,97.4113,260.0715,155.8355,204.3220,0,U,43803,999,41806,.28493287E-3,.9462E-4,0
UWE-4,2018-111E,2026-07-15T08:27:21.725856,15.47824446,.00062889,97.5850,126.0767,193.5981,166.5100,0,U,43880,999,41513,.39288701E-3,.2035E-3,0
TIANYAN 01,2019-093C,2026-07-16T06:11:27.287808,14.86559693,.0013504,97.7525,268.7798,358.1296,1.9868,0,U,44881,999,35573,-.20981227E-4,-.24E-5,0
RS-44 & BREEZE-KM R/B,2019-096E,2026-07-16T07:44:58.887456,12.79748924,.02185247,82.5242,320.3451,76.3675,286.1657,0,U,44909,999,30607,.2724887E-5,.14E-6,0
SALSAT,2020-068K,2026-07-16T05:58:34.584960,15.30180346,.00093214,97.8856,202.0925,188.9749,171.1325,0,U,46495,999,31980,.1336874E-3,.3822E-4,0
XW-3 (CAS-9),2021-131B,2026-07-16T06:42:55.970208,14.41382436,.00045148,98.4994,289.5124,27.8133,332.3296,0,U,50466,999,23930,.9651207E-4,.268E-5,0
GREENCUBE (IO-117),2022-080E,2026-07-16T06:55:09.765408,6.42583343,.00090797,70.1408,288.1261,283.0875,76.8771,0,U,53109,999,9393,0,-.3E-7,0
UMKA 1 (RS40S),2023-091G,2026-07-16T05:43:18.493536,15.21127412,.00129482,97.5034,255.8272,26.0946,334.0940,0,U,57172,999,16842,.14071707E-3,.3067E-4,0
CUBESX-HSE 3 (RS42S),2023-091N,2026-07-16T05:56:29.145984,15.31898980,.00095561,97.5076,263.2139,358.1976,1.9229,0,U,57178,999,16887,.22140118E-3,.6747E-4,0
MONITOR-3 (RS58S),2023-091Q,2026-07-16T06:31:45.423264,15.28383975,.00108823,97.5068,260.9403,5.9945,354.1423,0,U,57180,999,16873,.19028451E-3,.519E-4,0
MONITOR-4 (RS57S),2023-091S,2026-07-16T05:59:15.858240,15.28470759,.00108649,97.5061,260.8903,6.3683,353.7692,0,U,57182,999,16873,.19753629E-3,.5405E-4,0
MONITOR-2 (RS39S),2023-091U,2026-07-16T07:07:16.837824,15.19159675,.00112841,97.5055,255.3935,20.3954,339.7729,0,U,57184,999,16837,.12053906E-3,.2468E-4,0
SVYATOBOR 1 (RS60S),2023-091X,2026-07-16T06:55:17.334912,15.27073178,.00086433,97.5075,261.2733,0.6074,359.5173,0,U,57187,999,16875,.17197912E-3,.4495E-4,0
VIZARD-METEO (RS38S),2023-091Z,2026-07-16T06:12:43.512480,15.36893933,.00055641,97.5078,267.3430,335.0505,25.0469,0,U,57189,999,16915,.24996732E-3,.8937E-4,0
POLYTECH-UNIVERSE 3 (RS46S),2023-091AB,2026-07-16T06:05:53.602368,15.19371889,.00159962,97.5032,254.8553,34.2841,325.9423,0,U,57191,999,16836,.11968223E-3,.2469E-4,0
UTMN 2 (RS27S),2023-091AP,2026-07-16T04:25:15.693024,15.32715186,.00066242,97.5072,264.8186,346.3814,13.7248,0,U,57203,999,16898,.20773621E-3,.6486E-4,0
