CUBEBUG-2 (LO-74)       
1 39440U 13066AA  26197.26682240  .00002019  00000+0  18968-3 0  9997
2 39440  97.8916 146.3746 0055589 291.7136  67.8171 14.93971016681336
FUNCUBE-1 (AO-73)       
1 39444U 13066AE  26196.88912523  .00003677  00000+0  22787-3 0  9993
2 39444  97.8290 168.9436 0037989 105.4335 255.1095 15.09822727683990
UWE-3                   
1 39446U 13066AG  26196.82148462  .00001951  00000+0  17026-3 0  9995
2 39446  97.8715 153.0945 0047549 222.4036 137.3508 14.97201399681861
UNISAT-6                
1 40012U 14033C   26196.97549731  .00001093  00000+0  12208-3 0  9995
2 40012  97.7909 349.1880 0044121 335.1542  24.7549 14.88368249650441
DUCHIFAT-1              
1 40021U 14033M   26197.12557747  .00087055  00000+0  68520-3 0  9999
2 40021  98.0416 260.5020 0002770 239.6355 120.4633 15.71200075660280
QB50P1                  
1 40025U 14033R   26197.27644324  .00003942  00000+0  19369-3 0  9997
2 40025  98.0963 210.4713 0010409 121.5140 238.7110 15.18674869657447
LILACSAT-2              
1 40908U 15049K   26197.28746477  .00010362  00000+0  17132-3 0  9998
2 40908  97.4621 235.2490 0008460 138.2528 221.9372 15.52383088600267
FOX-1A (AO-85)          
1 40967U 15058D   26197.19346594  .00001568  00000+0  14890-3 0  9995
2 40967  64.7725 188.8311 0132434  45.4251 315.7579 14.91091433117895
CAS-2T & KS-1Q          
1 41847U 16066G   26197.18998331  .00000484  00000+0  76375-4 0  9997
2 41847  98.3813 272.5943 0342196  41.7454 320.9311 14.44771379508986
RADFXSAT (FOX-1B)       
1 43017U 17073E   26197.17719414  .00004307  00000+0  18905-3 0  9991
2 43017  97.4663  63.8014 0148309 228.0538 130.7976 15.13069051469774
DIWATA-2B               
1 43678U 18084H   26197.24454330  .00000989  00000+0  83460-4 0  9999
2 43678  98.1210  34.7252 0012774  81.1103 279.1566 15.00565233420573
ES'HAIL 2               
1 43700U 18090A   26197.27502971  .00000133  00000+0  00000+0 0  9995
2 43700   0.0165  53.3784 0002244 105.6197 259.8961  1.00271498 27965
FOX-1CLIFF (AO-95)      
1 43770U 18099N   26197.10722852  .00006434  00000+0  24333-3 0  9994
2 43770  97.4366 257.2560 0007323 235.9460 124.1084 15.27285234417639
ITASAT                  
1 43786U 18099AE  26197.13389985  .00003276  00000+0  15784-3 0  9991
2 43786  97.4011 248.0717 0010922 246.7548 113.2537 15.19388606417305
JY1SAT (JO-97)          
1 43803U 18099AX  26197.12152900  .00009462  00000+0  28493-3 0  9999
2 43803  97.4113 260.0715 0007052 155.8355 204.3220 15.34537200418064
UWE-4                   
1 43880U 18111E   26196.35233479  .00020350  00000+0  39289-3 0  9998
2 43880  97.5850 126.0767 0006288 193.5981 166.5100 15.47824446415136
TIANYAN 01              
1 44881U 19093C   26197.25795472 -.00000240  00000+0 -20981-4 0  9994
2 44881  97.7525 268.7798 0013504 358.1296   1.9868 14.86559693355737
RS-44 & BREEZE-KM R/B   
1 44909U 19096E   26197.32290379  .00000014  00000+0  27249-5 0  9994
2 44909  82.5242 320.3451 0218524  76.3675 286.1657 12.79748924306079
SALSAT                  
1 46495U 20068K   26197.24901140  .00003822  00000+0  13369-3 0  9999
2 46495  97.8856 202.0925 0009321 188.9749 171.1325 15.30180346319806
XW-3 (CAS-9)            
1 50466U 21131B   26197.27981447  .00000268  00000+0  96512-4 0  9998
2 50466  98.4994 289.5124 0004514  27.8133 332.3296 14.41382436239306
GREENCUBE (IO-117)      
1 53109U 22080E   26197.28830747 -.00000003  00000+0  00000+0 0  9996
2 53109  70.1408 288.1261 0009079 283.0875  76.8771  6.42583343 93934
UMKA 1 (RS40S)          
1 57172U 23091G   26197.23840849  .00003067  00000+0  14072-3 0  9992
2 57172  97.5034 255.8272 0012948  26.0946 334.0940 15.21127412168424
CUBESX-HSE 3 (RS42S)    
1 57178U 23091N   26197.24755956  .00006747  00000+0  22140-3 0  9996
2 57178  97.5076 263.2139 0009556 358.1976   1.9229 15.31898980168879
MONITOR-3 (RS58S)       
1 57180U 23091Q   26197.27205351  .00005190  00000+0  19028-3 0  9993
2 57180  97.5068 260.9403 0010882   5.9945 354.1423 15.28383975168731
MONITOR-4 (RS57S)       
1 57182U 23091S   26197.24948910  .00005405  00000+0  19754-3 0  9992
2 57182  97.5061 260.8903 0010864   6.3683 353.7692 15.28470759168734
MONITOR-2 (RS39S)       
1 57184U 23091U   26197.29672266  .00002468  00000+0  12054-3 0  9999
2 57184  97.5055 255.3935 0011284  20.3954 339.7729 15.19159675168373
SVYATOBOR 1 (RS60S)     
1 57187U 23091X   26197.28839508  .00004495  00000+0  17198-3 0  9991
2 57187  97.5075 261.2733 0008643   0.6074 359.5173 15.27073178168756
VIZARD-METEO (RS38S)    
1 57189U 23091Z   26197.25883695  .00008937  00000+0  24997-3 0  9996
2 57189  97.5078 267.3430 0005564 335.0505  25.0469 15.36893933169152
POLYTECH-UNIVERSE 3 (R*)
1 57191U 23091AB  26197.25409262  .00002469  00000+0  11968-3 0  9991
2 57191  97.5032 254.8553 0015996  34.2841 325.9423 15.19371889168369
UTMN 2 (RS27S)          
1 57203U 23091AP  26197.18420941  .00006486  00000+0  20774-3 0  9992
2 57203  97.5072 264.8186 0006624 346.3814  13.7248 15.32715186168987
